{"type": "FeatureCollection", "features": [ {"type": "Feature", "properties": {"norad_id": 65304, "name": "DRAGON CRS-33", "group": "stations", "lat": -50.64464889955695, "lon": -4.948384760853062, "alt_km": 419.78192526429484, "timestamp": "2025-12-27T08:36:17.113203+00:00", "meta": {"OBJECT_NAME": "DRAGON CRS-33", "OBJECT_ID": "2025-186A", "EPOCH": "2025-12-26T20:34:16.428576", "MEAN_MOTION": 15.49855582, "ECCENTRICITY": 0.00032301, "INCLINATION": 51.6319, "RA_OF_ASC_NODE": 72.5609, "ARG_OF_PERICENTER": 307.0606, "MEAN_ANOMALY": 53.0087, "EPHEMERIS_TYPE": 0, "CLASSIFICATION_TYPE": "U", "NORAD_CAT_ID": 65304, "ELEMENT_SET_NO": 999, "REV_AT_EPOCH": 11, "BSTAR": 0.00027091986, "MEAN_MOTION_DOT": 0.00014958, "MEAN_MOTION_DDOT": 0}, "tle": {"line1": "1 65304U 25186A   25360.85713459  .00014958  00000+0  27092-3 0  9997", "line2": "2 65304  51.6319  72.5609 0003230 307.0606  53.0087 15.49855582   111"}}, "geometry": {"type": "Point", "coordinates": [-4.948384760853062, -50.64464889955695]}}, {"type": "Feature", "properties": {"norad_id": 65586, "name": "PROGRESS-MS 32", "group": "stations", "lat": -50.644648768836625, "lon": -4.948383764776616, "alt_km": 419.78192524854785, "timestamp": "2025-12-27T08:36:17.113213+00:00", "meta": {"OBJECT_NAME": "PROGRESS-MS 32", "OBJECT_ID": "2025-204A", "EPOCH": "2025-12-26T20:34:16.428576", "MEAN_MOTION": 15.49855582, "ECCENTRICITY": 0.00032301, "INCLINATION": 51.6319, "RA_OF_ASC_NODE": 72.5609, "ARG_OF_PERICENTER": 307.0606, "MEAN_ANOMALY": 53.0087, "EPHEMERIS_TYPE": 0, "CLASSIFICATION_TYPE": "U", "NORAD_CAT_ID": 65586, "ELEMENT_SET_NO": 999, "REV_AT_EPOCH": 27, "BSTAR": 0.00027091986, "MEAN_MOTION_DOT": 0.00014958, "MEAN_MOTION_DDOT": 0}, "tle": {"line1": "1 65586U 25204A   25360.85713459  .00014958  00000+0  27092-3 0  9990", "line2": "2 65586  51.6319  72.5609 0003230 307.0606  53.0087 15.49855582   270"}}, "geometry": {"type": "Point", "coordinates": [-4.948383764776616, -50.644648768836625]}}, {"type": "Feature", "properties": {"norad_id": 65616, "name": "CYGNUS NG-23", "group": "stations", "lat": -50.6446486381164, "lon": -4.948382768700707, "alt_km": 419.7819252327972, "timestamp": "2025-12-27T08:36:17.113223+00:00", "meta": {"OBJECT_NAME": "CYGNUS NG-23", "OBJECT_ID": "2025-208A", "EPOCH": "2025-12-26T20:34:16.428576", "MEAN_MOTION": 15.49855582, "ECCENTRICITY": 0.00032301, "INCLINATION": 51.6319, "RA_OF_ASC_NODE": 72.5609, "ARG_OF_PERICENTER": 307.0606, "MEAN_ANOMALY": 53.0087, "EPHEMERIS_TYPE": 0, "CLASSIFICATION_TYPE": "U", "NORAD_CAT_ID": 65616, "ELEMENT_SET_NO": 999, "REV_AT_EPOCH": 22, "BSTAR": 0.00027091986, "MEAN_MOTION_DOT": 0.00014958, "MEAN_MOTION_DDOT": 0}, "tle": {"line1": "1 65616U 25208A   25360.85713459  .00014958  00000+0  27092-3 0  9998", "line2": "2 65616  51.6319  72.5609 0003230 307.0606  53.0087 15.49855582   229"}}, "geometry": {"type": "Point", "coordinates": [-4.948382768700707, -50.6446486381164]}}, {"type": "Feature", "properties": {"norad_id": 65729, "name": "DRAGONFLY", "group": "stations", "lat": 42.21610089280683, "lon": -165.34466660248395, "alt_km": 335.42736373681237, "timestamp": "2025-12-27T08:36:17.113234+00:00", "meta": {"OBJECT_NAME": "DRAGONFLY", "OBJECT_ID": "1998-067XH", "EPOCH": "2025-12-26T10:48:09.332064", "MEAN_MOTION": 15.76805342, "ECCENTRICITY": 0.0008231, "INCLINATION": 51.6248, "RA_OF_ASC_NODE": 65.3139, "ARG_OF_PERICENTER": 358.0707, "MEAN_ANOMALY": 2.026, "EPHEMERIS_TYPE": 0, "CLASSIFICATION_TYPE": "U", "NORAD_CAT_ID": 65729, "ELEMENT_SET_NO": 999, "REV_AT_EPOCH": 1532, "BSTAR": 0.0012148, "MEAN_MOTION_DOT": 0.00204396, "MEAN_MOTION_DDOT": 0}, "tle": {"line1": "1 65729U 98067XH  25360.45010801  .00204396  00000+0  12148-2 0  9995", "line2": "2 65729  51.6248  65.3139 0008231 358.0707   2.0260 15.76805342 15320"}}, "geometry": {"type": "Point", "coordinates": [-165.34466660248395, 42.21610089280683]}}, {"type": "Feature", "properties": {"norad_id": 65731, "name": "1998-067XK", "group": "stations", "lat": 42.06192079849235, "lon": -162.7345803094802, "alt_km": 359.9217807103323, "timestamp": "2025-12-27T08:36:17.113245+00:00", "meta": {"OBJECT_NAME": "1998-067XK", "OBJECT_ID": "1998-067XK", "EPOCH": "2025-12-26T21:23:13.987104", "MEAN_MOTION": 15.68524225, "ECCENTRICITY": 0.0005094, "INCLINATION": 51.628, "RA_OF_ASC_NODE": 65.2916, "ARG_OF_PERICENTER": 333.5043, "MEAN_ANOMALY": 26.5692, "EPHEMERIS_TYPE": 0, "CLASSIFICATION_TYPE": "U", "NORAD_CAT_ID": 65731, "ELEMENT_SET_NO": 999, "REV_AT_EPOCH": 1536, "BSTAR": 0.0010262, "MEAN_MOTION_DOT": 0.00119786, "MEAN_MOTION_DDOT": 0}, "tle": {"line1": "1 65731U 98067XK  25360.89113411  .00119786  00000+0  10262-2 0  9990", "line2": "2 65731  51.6280  65.2916 0005094 333.5043  26.5692 15.68524225 15369"}}, "geometry": {"type": "Point", "coordinates": [-162.7345803094802, 42.06192079849235]}}, {"type": "Feature", "properties": {"norad_id": 65732, "name": "RSP-03", "group": "stations", "lat": -51.60504690606868, "lon": -27.785268029732798, "alt_km": 355.0437803564482, "timestamp": "2025-12-27T08:36:17.113257+00:00", "meta": {"OBJECT_NAME": "RSP-03", "OBJECT_ID": "1998-067XL", "EPOCH": "2025-12-27T04:24:34.201152", "MEAN_MOTION": 15.72475718, "ECCENTRICITY": 0.0006157, "INCLINATION": 51.626, "RA_OF_ASC_NODE": 62.7293, "ARG_OF_PERICENTER": 342.7468, "MEAN_ANOMALY": 17.332, "EPHEMERIS_TYPE": 0, "CLASSIFICATION_TYPE": "U", "NORAD_CAT_ID": 65732, "ELEMENT_SET_NO": 999, "REV_AT_EPOCH": 1543, "BSTAR": 0.001234, "MEAN_MOTION_DOT": 0.00171198, "MEAN_MOTION_DDOT": 0}, "tle": {"line1": "1 65732U 98067XL  25361.18372918  .00171198  00000+0  12340-2 0  9997", "line2": "2 65732  51.6260  62.7293 0006157 342.7468  17.3320 15.72475718 15433"}}, "geometry": {"type": "Point", "coordinates": [-27.785268029732798, -51.60504690606868]}}, {"type": "Feature", "properties": {"norad_id": 65733, "name": "GHS-01", "group": "stations", "lat": -36.48498775806146, "lon": -84.46741142674747, "alt_km": 333.78546262509553, "timestamp": "2025-12-27T08:36:17.113269+00:00", "meta": {"OBJECT_NAME": "GHS-01", "OBJECT_ID": "1998-067XM", "EPOCH": "2025-12-26T21:01:30.345024", "MEAN_MOTION": 15.81574264, "ECCENTRICITY": 0.0009494, "INCLINATION": 51.6277, "RA_OF_ASC_NODE": 62.1658, "ARG_OF_PERICENTER": 4.8401, "MEAN_ANOMALY": 355.2691, "EPHEMERIS_TYPE": 0, "CLASSIFICATION_TYPE": "U", "NORAD_CAT_ID": 65733, "ELEMENT_SET_NO": 999, "REV_AT_EPOCH": 1541, "BSTAR": 0.0015055, "MEAN_MOTION_DOT": 0.00319127, "MEAN_MOTION_DDOT": 0}, "tle": {"line1": "1 65733U 98067XM  25360.87604566  .00319127  00000+0  15055-2 0  9992", "line2": "2 65733  51.6277  62.1658 0009494   4.8401 355.2691 15.81574264 15410"}}, "geometry": {"type": "Point", "coordinates": [-84.46741142674747, -36.48498775806146]}}, {"type": "Feature", "properties": {"norad_id": 65941, "name": "YOTSUBA-KULOVER", "group": "stations", "lat": -46.873023934961765, "lon": -55.835685868660924, "alt_km": 388.81148174766713, "timestamp": "2025-12-27T08:36:17.113281+00:00", "meta": {"OBJECT_NAME": "YOTSUBA-KULOVER", "OBJECT_ID": "1998-067XN", "EPOCH": "2025-12-26T14:38:51.631584", "MEAN_MOTION": 15.61332207, "ECCENTRICITY": 0.00025713, "INCLINATION": 51.6289, "RA_OF_ASC_NODE": 70.1673, "ARG_OF_PERICENTER": 5.6559, "MEAN_ANOMALY": 354.4463, "EPHEMERIS_TYPE": 0, "CLASSIFICATION_TYPE": "U", "NORAD_CAT_ID": 65941, "ELEMENT_SET_NO": 999, "REV_AT_EPOCH": 1202, "BSTAR": 0.00084261791, "MEAN_MOTION_DOT": 0.0007325, "MEAN_MOTION_DDOT": 0}, "tle": {"line1": "1 65941U 98067XN  25360.61031981  .00073250  00000+0  84262-3 0  9991", "line2": "2 65941  51.6289  70.1673 0002571   5.6559 354.4463 15.61332207 12021"}}, "geometry": {"type": "Point", "coordinates": [-55.835685868660924, -46.873023934961765]}}, {"type": "Feature", "properties": {"norad_id": 65942, "name": "BOTAN", "group": "stations", "lat": 46.0942453727609, "lon": 120.6823038381298, "alt_km": 363.2802169059414, "timestamp": "2025-12-27T08:36:17.113292+00:00", "meta": {"OBJECT_NAME": "BOTAN", "OBJECT_ID": "1998-067XP", "EPOCH": "2025-12-26T21:36:00.133056", "MEAN_MOTION": 15.65926329, "ECCENTRICITY": 0.00036204, "INCLINATION": 51.6276, "RA_OF_ASC_NODE": 67.6002, "ARG_OF_PERICENTER": 350.1731, "MEAN_ANOMALY": 9.9193, "EPHEMERIS_TYPE": 0, "CLASSIFICATION_TYPE": "U", "NORAD_CAT_ID": 65942, "ELEMENT_SET_NO": 999, "REV_AT_EPOCH": 1208, "BSTAR": 0.0012627246, "MEAN_MOTION_DOT": 0.00132903, "MEAN_MOTION_DDOT": 0}, "tle": {"line1": "1 65942U 98067XP  25360.90000154  .00132903  00000+0  12627-2 0  9998", "line2": "2 65942  51.6276  67.6002 0003620 350.1731   9.9193 15.65926329 12087"}}, "geometry": {"type": "Point", "coordinates": [120.6823038381298, 46.0942453727609]}}, {"type": "Feature", "properties": {"norad_id": 65943, "name": "E-KAGAKU-1", "group": "stations", "lat": -46.70156925493889, "lon": -56.37359859902665, "alt_km": 387.90188490034416, "timestamp": "2025-12-27T08:36:17.113302+00:00", "meta": {"OBJECT_NAME": "E-KAGAKU-1", "OBJECT_ID": "1998-067XQ", "EPOCH": "2025-12-26T11:34:38.215200", "MEAN_MOTION": 15.61326456, "ECCENTRICITY": 0.00014737, "INCLINATION": 51.6304, "RA_OF_ASC_NODE": 70.8185, "ARG_OF_PERICENTER": 333.5123, "MEAN_ANOMALY": 26.5795, "EPHEMERIS_TYPE": 0, "CLASSIFICATION_TYPE": "U", "NORAD_CAT_ID": 65943, "ELEMENT_SET_NO": 999, "REV_AT_EPOCH": 1200, "BSTAR": 0.0007949653, "MEAN_MOTION_DOT": 0.00069021, "MEAN_MOTION_DDOT": 0}, "tle": {"line1": "1 65943U 98067XQ  25360.48238675  .00069021  00000+0  79497-3 0  9992", "line2": "2 65943  51.6304  70.8185 0001473 333.5123  26.5795 15.61326456 12008"}}, "geometry": {"type": "Point", "coordinates": [-56.37359859902665, -46.70156925493889]}}]}